{
  "norad_id": 52786,
  "name": "GEESAT-1 02",
  "history": [
    {
      "epoch": "2026-03-28T18:56:04.236288Z",
      "apogee_km": 642.0236515522838,
      "perigee_km": 609.6013886707542,
      "latitude_deg": -1.5952340479289998e-05,
      "longitude_deg": 103.70938690620555,
      "height_km": 617.408313747983,
      "semi_major_axis_km": 7003.949520111519,
      "eccentricity": 0.00231457,
      "inclination_deg": 49.9994,
      "raan_deg": 213.9314,
      "arg_perigee_deg": 303.4855,
      "mean_anomaly_deg": 56.387,
      "mean_motion_rev_day": 14.81113195
    },
    {
      "epoch": "2026-03-29T03:01:50.604960Z",
      "apogee_km": 642.0193648420809,
      "perigee_km": 609.5841245154743,
      "latitude_deg": -3.519024075358892e-06,
      "longitude_deg": -19.623405209977857,
      "height_km": 617.0988864768246,
      "semi_major_axis_km": 7003.938744678778,
      "eccentricity": 0.0023155,
      "inclination_deg": 49.9994,
      "raan_deg": 212.3743,
      "arg_perigee_deg": 304.7466,
      "mean_anomaly_deg": 55.1291,
      "mean_motion_rev_day": 14.81116613
    },
    {
      "epoch": "2026-03-30T03:19:09.564096Z",
      "apogee_km": 642.0093866982506,
      "perigee_km": 609.558819443504,
      "latitude_deg": 2.7540109544299044e-05,
      "longitude_deg": -29.620972433273188,
      "height_km": 616.2098994110751,
      "semi_major_axis_km": 7003.9211030708775,
      "eccentricity": 0.0023166,
      "inclination_deg": 49.9995,
      "raan_deg": 207.7032,
      "arg_perigee_deg": 308.5698,
      "mean_anomaly_deg": 51.3164,
      "mean_motion_rev_day": 14.81122209
    },
    {
      "epoch": "2026-03-30T04:56:18.819168Z",
      "apogee_km": 642.0081780738637,
      "perigee_km": 609.5580356699111,
      "latitude_deg": -4.670103990982155e-06,
      "longitude_deg": -54.28746175843547,
      "height_km": 616.1526773745032,
      "semi_major_axis_km": 7003.920106871887,
      "eccentricity": 0.00231657,
      "inclination_deg": 49.9995,
      "raan_deg": 207.3918,
      "arg_perigee_deg": 308.8252,
      "mean_anomaly_deg": 51.0617,
      "mean_motion_rev_day": 14.81122525
    },
    {
      "epoch": "2026-03-30T13:02:05.030592Z",
      "apogee_km": 641.998456487343,
      "perigee_km": 609.5539492012786,
      "latitude_deg": -2.063735740127629e-05,
      "longitude_deg": -177.61962017462702,
      "height_km": 615.8667343656477,
      "semi_major_axis_km": 7003.91320284431,
      "eccentricity": 0.00231617,
      "inclination_deg": 49.9995,
      "raan_deg": 205.8347,
      "arg_perigee_deg": 310.1121,
      "mean_anomaly_deg": 49.7786,
      "mean_motion_rev_day": 14.81124715
    },
    {
      "epoch": "2026-03-30T19:30:41.973120Z",
      "apogee_km": 641.9945376188598,
      "perigee_km": 609.5434799863942,
      "latitude_deg": 7.483328256009851e-05,
      "longitude_deg": 83.71493461222997,
      "height_km": 615.6284304531716,
      "semi_major_axis_km": 7003.906008802626,
      "eccentricity": 0.00231664,
      "inclination_deg": 49.9993,
      "raan_deg": 204.5891,
      "arg_perigee_deg": 311.1796,
      "mean_anomaly_deg": 48.7144,
      "mean_motion_rev_day": 14.81126997
    },
    {
      "epoch": "2026-03-31T16:33:41.892480Z",
      "apogee_km": 641.9794389563276,
      "perigee_km": 609.5262150539174,
      "latitude_deg": -3.884773516061247e-05,
      "longitude_deg": 123.05268506241,
      "height_km": 614.9162152283071,
      "semi_major_axis_km": 7003.889827005122,
      "eccentricity": 0.0023168,
      "inclination_deg": 49.9997,
      "raan_deg": 200.5411,
      "arg_perigee_deg": 314.5351,
      "mean_anomaly_deg": 45.3693,
      "mean_motion_rev_day": 14.8113213
    },
    {
      "epoch": "2026-04-01T16:50:59.921952Z",
      "apogee_km": 641.9760248116645,
      "perigee_km": 609.5004560967254,
      "latitude_deg": -1.2951312349053831e-05,
      "longitude_deg": 113.05899843294489,
      "height_km": 614.1556994137092,
      "semi_major_axis_km": 7003.875240454195,
      "eccentricity": 0.0023184,
      "inclination_deg": 49.9998,
      "raan_deg": 195.87,
      "arg_perigee_deg": 318.3207,
      "mean_anomaly_deg": 41.5963,
      "mean_motion_rev_day": 14.81136757
    },
    {
      "epoch": "2026-04-02T18:45:26.688960Z",
      "apogee_km": 641.9362868552043,
      "perigee_km": 609.4762747859131,
      "latitude_deg": 1.436186279002366e-05,
      "longitude_deg": 78.40081238003818,
      "height_km": 613.3867764671704,
      "semi_major_axis_km": 7003.843280820558,
      "eccentricity": 0.0023173,
      "inclination_deg": 49.9996,
      "raan_deg": 190.8873,
      "arg_perigee_deg": 322.4403,
      "mean_anomaly_deg": 37.4915,
      "mean_motion_rev_day": 14.81146895
    },
    {
      "epoch": "2026-04-02T18:45:26.689824Z",
      "apogee_km": 641.9365670089355,
      "perigee_km": 609.4759946321819,
      "latitude_deg": 1.6509491617880354e-05,
      "longitude_deg": 78.40081056249377,
      "height_km": 613.3865543953025,
      "semi_major_axis_km": 7003.843280820558,
      "eccentricity": 0.00231734,
      "inclination_deg": 49.9996,
      "raan_deg": 190.8873,
      "arg_perigee_deg": 322.4403,
      "mean_anomaly_deg": 37.4915,
      "mean_motion_rev_day": 14.81146895
    },
    {
      "epoch": "2026-04-03T15:48:25.616448Z",
      "apogee_km": 641.9139802089403,
      "perigee_km": 609.4554688088765,
      "latitude_deg": 5.833041733685008e-05,
      "longitude_deg": 117.74253743084056,
      "height_km": 612.8113430447562,
      "semi_major_axis_km": 7003.821724508908,
      "eccentricity": 0.0023172,
      "inclination_deg": 49.9994,
      "raan_deg": 186.839,
      "arg_perigee_deg": 325.7852,
      "mean_anomaly_deg": 34.1592,
      "mean_motion_rev_day": 14.81153733
    },
    {
      "epoch": "2026-04-04T06:22:47.681760Z",
      "apogee_km": 641.9000558359585,
      "perigee_km": 609.4389535241971,
      "latitude_deg": -5.647253427364652e-05,
      "longitude_deg": -104.25078091917241,
      "height_km": 612.4422619053053,
      "semi_major_axis_km": 7003.8065046800775,
      "eccentricity": 0.00231739,
      "inclination_deg": 49.9993,
      "raan_deg": 184.0362,
      "arg_perigee_deg": 328.0707,
      "mean_anomaly_deg": 31.8824,
      "mean_motion_rev_day": 14.81158561
    },
    {
      "epoch": "2026-04-05T13:08:40.534368Z",
      "apogee_km": 641.8935938388831,
      "perigee_km": 609.4031735197022,
      "latitude_deg": -2.509011862722818e-06,
      "longitude_deg": 147.09888267265404,
      "height_km": 611.7288123206408,
      "semi_major_axis_km": 7003.785383679292,
      "eccentricity": 0.00231949,
      "inclination_deg": 49.9993,
      "raan_deg": 178.1195,
      "arg_perigee_deg": 332.9491,
      "mean_anomaly_deg": 27.0236,
      "mean_motion_rev_day": 14.81165261
    },
    {
      "epoch": "2026-04-05T16:22:58.696320Z",
      "apogee_km": 641.9012784372435,
      "perigee_km": 609.3897200756955,
      "latitude_deg": -5.622306759530397e-06,
      "longitude_deg": 97.76740956094281,
      "height_km": 611.6491041211243,
      "semi_major_axis_km": 7003.782499256469,
      "eccentricity": 0.002321,
      "inclination_deg": 49.9993,
      "raan_deg": 177.4967,
      "arg_perigee_deg": 333.4768,
      "mean_anomaly_deg": 26.498,
      "mean_motion_rev_day": 14.81166176
    },
    {
      "epoch": "2026-04-06T05:20:11.275008Z",
      "apogee_km": 641.8850004757041,
      "perigee_km": 609.3884708705036,
      "latitude_deg": -3.0391934679517924e-05,
      "longitude_deg": -99.55840452968359,
      "height_km": 611.3995575439159,
      "semi_major_axis_km": 7003.773735673103,
      "eccentricity": 0.00231993,
      "inclination_deg": 49.9992,
      "raan_deg": 175.0053,
      "arg_perigee_deg": 335.5051,
      "mean_anomaly_deg": 24.4782,
      "mean_motion_rev_day": 14.81168956
    },
    {
      "epoch": "2026-04-07T13:43:12.442656Z",
      "apogee_km": 641.8630030156191,
      "perigee_km": 609.3783143183427,
      "latitude_deg": 3.6417473692207965e-06,
      "longitude_deg": 127.12850550443348,
      "height_km": 610.8440485815348,
      "semi_major_axis_km": 7003.75765866698,
      "eccentricity": 0.00231909,
      "inclination_deg": 49.999,
      "raan_deg": 168.777,
      "arg_perigee_deg": 340.6565,
      "mean_anomaly_deg": 19.349,
      "mean_motion_rev_day": 14.81174056
    },
    {
      "epoch": "2026-04-07T16:57:30.536352Z",
      "apogee_km": 641.8641083085722,
      "perigee_km": 609.3736847046775,
      "latitude_deg": 7.58370805168679e-06,
      "longitude_deg": 77.79722330546524,
      "height_km": 610.792718399532,
      "semi_major_axis_km": 7003.755896506625,
      "eccentricity": 0.0023195,
      "inclination_deg": 49.999,
      "raan_deg": 168.1541,
      "arg_perigee_deg": 341.1617,
      "mean_anomaly_deg": 18.846,
      "mean_motion_rev_day": 14.81174615
    }
  ]
}